[{"OBJECT_NAME":"ONEWEB-0058","OBJECT_ID":"2020-008AG","EPOCH":"2025-07-28T16:24:54.080928","MEAN_MOTION":13.10374729,"ECCENTRICITY":0.000196,"INCLINATION":87.88,"RA_OF_ASC_NODE":100.8108,"ARG_OF_PERICENTER":75.5344,"MEAN_ANOMALY":284.6,"EPHEMERIS_TYPE":0,"CLASSIFICATION_TYPE":"U","NORAD_CAT_ID":45161,"ELEMENT_SET_NO":999,"REV_AT_EPOCH":26680,"BSTAR":0.0018909,"MEAN_MOTION_DOT":6.73e-6,"MEAN_MOTION_DDOT":0},{"OBJECT_NAME":"ONEWEB-0059","OBJECT_ID":"2020-008AH","EPOCH":"2025-07-29T03:19:38.534880","MEAN_MOTION":13.10375867,"ECCENTRICITY":0.0001933,"INCLINATION":87.8807,"RA_OF_ASC_NODE":100.719,"ARG_OF_PERICENTER":74.2563,"MEAN_ANOMALY":285.8777,"EPHEMERIS_TYPE":0,"CLASSIFICATION_TYPE":"U","NORAD_CAT_ID":45162,"ELEMENT_SET_NO":999,"REV_AT_EPOCH":26675,"BSTAR":0.0015393,"MEAN_MOTION_DOT":5.5e-6,"MEAN_MOTION_DDOT":0},{"OBJECT_NAME":"ONEWEB-0062","OBJECT_ID":"2020-008AJ","EPOCH":"2025-07-28T15:06:59.949792","MEAN_MOTION":13.10369751,"ECCENTRICITY":0.0001784,"INCLINATION":87.8797,"RA_OF_ASC_NODE":100.7999,"ARG_OF_PERICENTER":66.1842,"MEAN_ANOMALY":293.9472,"EPHEMERIS_TYPE":0,"CLASSIFICATION_TYPE":"U","NORAD_CAT_ID":45163,"ELEMENT_SET_NO":999,"REV_AT_EPOCH":26656,"BSTAR":0.00010837,"MEAN_MOTION_DOT":5.0e-7,"MEAN_MOTION_DDOT":0},{"OBJECT_NAME":"ONEWEB-0065","OBJECT_ID":"2020-008AK","EPOCH":"2025-07-29T03:26:55.387104","MEAN_MOTION":13.10374699,"ECCENTRICITY":0.0001598,"INCLINATION":87.8806,"RA_OF_ASC_NODE":100.7217,"ARG_OF_PERICENTER":87.2034,"MEAN_ANOMALY":272.9276,"EPHEMERIS_TYPE":0,"CLASSIFICATION_TYPE":"U","NORAD_CAT_ID":45164,"ELEMENT_SET_NO":999,"REV_AT_EPOCH":26631,"BSTAR":0.0019006,"MEAN_MOTION_DOT":6.76e-6,"MEAN_MOTION_DDOT":0},{"OBJECT_NAME":"ONEWEB-0066","OBJECT_ID":"2020-020A","EPOCH":"2025-07-29T04:22:46.559712","MEAN_MOTION":13.11417984,"ECCENTRICITY":0.0001984,"INCLINATION":87.8808,"RA_OF_ASC_NODE":85.4399,"ARG_OF_PERICENTER":84.9013,"MEAN_ANOMALY":275.2342,"EPHEMERIS_TYPE":0,"CLASSIFICATION_TYPE":"U","NORAD_CAT_ID":45424,"ELEMENT_SET_NO":999,"REV_AT_EPOCH":26035,"BSTAR":0.0015852,"MEAN_MOTION_DOT":5.75e-6,"MEAN_MOTION_DDOT":0},{"OBJECT_NAME":"ONEWEB-0067","OBJECT_ID":"2020-020B","EPOCH":"2025-07-28T14:37:42.285216","MEAN_MOTION":13.11418073,"ECCENTRICITY":0.0001917,"INCLINATION":87.8803,"RA_OF_ASC_NODE":85.4654,"ARG_OF_PERICENTER":84.7187,"MEAN_ANOMALY":275.416,"EPHEMERIS_TYPE":0,"CLASSIFICATION_TYPE":"U","NORAD_CAT_ID":45425,"ELEMENT_SET_NO":999,"REV_AT_EPOCH":26032,"BSTAR":-0.0014739,"MEAN_MOTION_DOT":-5.1e-6,"MEAN_MOTION_DDOT":0},{"OBJECT_NAME":"ONEWEB-0080","OBJECT_ID":"2020-020C","EPOCH":"2025-07-28T16:40:48.415584","MEAN_MOTION":13.11418853,"ECCENTRICITY":0.0002087,"INCLINATION":87.8814,"RA_OF_ASC_NODE":85.5374,"ARG_OF_PERICENTER":73.1188,"MEAN_ANOMALY":287.0169,"EPHEMERIS_TYPE":0,"CLASSIFICATION_TYPE":"U","NORAD_CAT_ID":45426,"ELEMENT_SET_NO":999,"REV_AT_EPOCH":26031,"BSTAR":-0.00076506,"MEAN_MOTION_DOT":-2.58e-6,"MEAN_MOTION_DDOT":0},{"OBJECT_NAME":"ONEWEB-0090","OBJECT_ID":"2020-020D","EPOCH":"2025-07-28T15:19:01.910784","MEAN_MOTION":13.11417385,"ECCENTRICITY":0.0001785,"INCLINATION":87.8814,"RA_OF_ASC_NODE":85.5508,"ARG_OF_PERICENTER":77.1309,"MEAN_ANOMALY":283.0019,"EPHEMERIS_TYPE":0,"CLASSIFICATION_TYPE":"U","NORAD_CAT_ID":45427,"ELEMENT_SET_NO":999,"REV_AT_EPOCH":26026,"BSTAR":0.001344,"MEAN_MOTION_DOT":4.89e-6,"MEAN_MOTION_DDOT":0},{"OBJECT_NAME":"ONEWEB-0061","OBJECT_ID":"2020-020E","EPOCH":"2025-07-28T21:34:48.664704","MEAN_MOTION":13.11414655,"ECCENTRICITY":0.0001837,"INCLINATION":87.8812,"RA_OF_ASC_NODE":85.48,"ARG_OF_PERICENTER":79.2358,"MEAN_ANOMALY":280.8977,"EPHEMERIS_TYPE":0,"CLASSIFICATION_TYPE":"U","NORAD_CAT_ID":45428,"ELEMENT_SET_NO":999,"REV_AT_EPOCH":26025,"BSTAR":-0.00060209,"MEAN_MOTION_DOT":-2.01e-6,"MEAN_MOTION_DDOT":0},{"OBJECT_NAME":"ONEWEB-0081","OBJECT_ID":"2020-020F","EPOCH":"2025-07-28T21:08:11.539968","MEAN_MOTION":13.1141568,"ECCENTRICITY":0.0001947,"INCLINATION":87.8808,"RA_OF_ASC_NODE":85.5041,"ARG_OF_PERICENTER":84.5496,"MEAN_ANOMALY":275.5854,"EPHEMERIS_TYPE":0,"CLASSIFICATION_TYPE":"U","NORAD_CAT_ID":45429,"ELEMENT_SET_NO":999,"REV_AT_EPOCH":26036,"BSTAR":0.0014262,"MEAN_MOTION_DOT":5.18e-6,"MEAN_MOTION_DDOT":0},{"OBJECT_NAME":"ONEWEB-0069","OBJECT_ID":"2020-020G","EPOCH":"2025-07-29T04:11:45.751776","MEAN_MOTION":13.11418361,"ECCENTRICITY":0.0001799,"INCLINATION":87.8815,"RA_OF_ASC_NODE":85.4375,"ARG_OF_PERICENTER":82.3384,"MEAN_ANOMALY":277.7948,"EPHEMERIS_TYPE":0,"CLASSIFICATION_TYPE":"U","NORAD_CAT_ID":45430,"ELEMENT_SET_NO":999,"REV_AT_EPOCH":26034,"BSTAR":0.0013023,"MEAN_MOTION_DOT":4.74e-6,"MEAN_MOTION_DDOT":0},{"OBJECT_NAME":"ONEWEB-0031","OBJECT_ID":"2020-020H","EPOCH":"2025-07-28T16:32:15.695520","MEAN_MOTION":13.11417813,"ECCENTRICITY":0.0001775,"INCLINATION":87.8813,"RA_OF_ASC_NODE":85.5647,"ARG_OF_PERICENTER":72.0525,"MEAN_ANOMALY":288.0796,"EPHEMERIS_TYPE":0,"CLASSIFICATION_TYPE":"U","NORAD_CAT_ID":45431,"ELEMENT_SET_NO":999,"REV_AT_EPOCH":26025,"BSTAR":-0.0013836,"MEAN_MOTION_DOT":-4.78e-6,"MEAN_MOTION_DDOT":0},{"OBJECT_NAME":"ONEWEB-0027","OBJECT_ID":"2020-020J","EPOCH":"2025-07-28T21:27:26.523072","MEAN_MOTION":13.17730922,"ECCENTRICITY":0.0001837,"INCLINATION":87.9028,"RA_OF_ASC_NODE":70.1864,"ARG_OF_PERICENTER":77.8618,"MEAN_ANOMALY":282.2719,"EPHEMERIS_TYPE":0,"CLASSIFICATION_TYPE":"U","NORAD_CAT_ID":45432,"ELEMENT_SET_NO":999,"REV_AT_EPOCH":26378,"BSTAR":0.00017833,"MEAN_MOTION_DOT":8.2e-7,"MEAN_MOTION_DDOT":0},{"OBJECT_NAME":"ONEWEB-0064","OBJECT_ID":"2020-020K","EPOCH":"2025-07-28T16:29:48.953760","MEAN_MOTION":13.11418554,"ECCENTRICITY":0.0001701,"INCLINATION":87.8811,"RA_OF_ASC_NODE":85.5568,"ARG_OF_PERICENTER":74.0829,"MEAN_ANOMALY":286.0486,"EPHEMERIS_TYPE":0,"CLASSIFICATION_TYPE":"U","NORAD_CAT_ID":45433,"ELEMENT_SET_NO":999,"REV_AT_EPOCH":26029,"BSTAR":-0.0013428,"MEAN_MOTION_DOT":-4.63e-6,"MEAN_MOTION_DDOT":0},{"OBJECT_NAME":"ONEWEB-0018","OBJECT_ID":"2020-020L","EPOCH":"2025-07-28T17:16:13.869408","MEAN_MOTION":13.11418156,"ECCENTRICITY":0.0001825,"INCLINATION":87.8809,"RA_OF_ASC_NODE":85.5347,"ARG_OF_PERICENTER":78.5929,"MEAN_ANOMALY":281.5404,"EPHEMERIS_TYPE":0,"CLASSIFICATION_TYPE":"U","NORAD_CAT_ID":45434,"ELEMENT_SET_NO":999,"REV_AT_EPOCH":26024,"BSTAR":0.00148,"MEAN_MOTION_DOT":5.37e-6,"MEAN_MOTION_DDOT":0},{"OBJECT_NAME":"ONEWEB-0083","OBJECT_ID":"2020-020M","EPOCH":"2025-07-28T15:11:42.223776","MEAN_MOTION":13.11418463,"ECCENTRICITY":0.0001739,"INCLINATION":87.8818,"RA_OF_ASC_NODE":85.5376,"ARG_OF_PERICENTER":77.267,"MEAN_ANOMALY":282.8652,"EPHEMERIS_TYPE":0,"CLASSIFICATION_TYPE":"U","NORAD_CAT_ID":45435,"ELEMENT_SET_NO":999,"REV_AT_EPOCH":26026,"BSTAR":0.00096066,"MEAN_MOTION_DOT":3.53e-6,"MEAN_MOTION_DDOT":0},{"OBJECT_NAME":"ONEWEB-0095","OBJECT_ID":"2020-020N","EPOCH":"2025-07-28T16:49:32.530080","MEAN_MOTION":13.11420645,"ECCENTRICITY":0.0001044,"INCLINATION":87.8809,"RA_OF_ASC_NODE":85.5481,"ARG_OF_PERICENTER":85.653,"MEAN_ANOMALY":274.4717,"EPHEMERIS_TYPE":0,"CLASSIFICATION_TYPE":"U","NORAD_CAT_ID":45436,"ELEMENT_SET_NO":999,"REV_AT_EPOCH":26028,"BSTAR":-0.00012968,"MEAN_MOTION_DOT":-3.3e-7,"MEAN_MOTION_DDOT":0}]
