ONEWEB-0058             
1 45161U 20008AG  25209.68395927  .00000673  00000+0  18909-2 0  9998
2 45161  87.8800 100.8108 0001960  75.5344 284.6000 13.10374729266801
ONEWEB-0059             
1 45162U 20008AH  25210.13864045  .00000550  00000+0  15393-2 0  9991
2 45162  87.8807 100.7190 0001933  74.2563 285.8777 13.10375867266750
ONEWEB-0062             
1 45163U 20008AJ  25209.62986053  .00000050  00000+0  10837-3 0  9992
2 45163  87.8797 100.7999 0001784  66.1842 293.9472 13.10369751266566
ONEWEB-0065             
1 45164U 20008AK  25210.14369661  .00000676  00000+0  19006-2 0  9992
2 45164  87.8806 100.7217 0001598  87.2034 272.9276 13.10374699266310
ONEWEB-0066             
1 45424U 20020A   25210.18248333  .00000575  00000+0  15852-2 0  9994
2 45424  87.8808  85.4399 0001984  84.9013 275.2342 13.11417984260355
ONEWEB-0067             
1 45425U 20020B   25209.60951719 -.00000510  00000+0 -14739-2 0  9993
2 45425  87.8803  85.4654 0001917  84.7187 275.4160 13.11418073260328
ONEWEB-0080             
1 45426U 20020C   25209.69500481 -.00000258  00000+0 -76506-3 0  9999
2 45426  87.8814  85.5374 0002087  73.1188 287.0169 13.11418853260316
ONEWEB-0090             
1 45427U 20020D   25209.63821656  .00000489  00000+0  13440-2 0  9995
2 45427  87.8814  85.5508 0001785  77.1309 283.0019 13.11417385260262
ONEWEB-0061             
1 45428U 20020E   25209.89917436 -.00000201  00000+0 -60209-3 0  9996
2 45428  87.8812  85.4800 0001837  79.2358 280.8977 13.11414655260254
ONEWEB-0081             
1 45429U 20020F   25209.88068912  .00000518  00000+0  14262-2 0  9998
2 45429  87.8808  85.5041 0001947  84.5496 275.5854 13.11415680260368
ONEWEB-0069             
1 45430U 20020G   25210.17483509  .00000474  00000+0  13023-2 0  9992
2 45430  87.8815  85.4375 0001799  82.3384 277.7948 13.11418361260349
ONEWEB-0031             
1 45431U 20020H   25209.68907055 -.00000478  00000+0 -13836-2 0  9992
2 45431  87.8813  85.5647 0001775  72.0525 288.0796 13.11417813260255
ONEWEB-0027             
1 45432U 20020J   25209.89405698  .00000082  00000+0  17833-3 0  9993
2 45432  87.9028  70.1864 0001837  77.8618 282.2719 13.17730922263788
ONEWEB-0064             
1 45433U 20020K   25209.68737215 -.00000463  00000+0 -13428-2 0  9994
2 45433  87.8811  85.5568 0001701  74.0829 286.0486 13.11418554260296
ONEWEB-0018             
1 45434U 20020L   25209.71960497  .00000537  00000+0  14800-2 0  9994
2 45434  87.8809  85.5347 0001825  78.5929 281.5404 13.11418156260249
ONEWEB-0083             
1 45435U 20020M   25209.63312759  .00000353  00000+0  96066-3 0  9999
2 45435  87.8818  85.5376 0001739  77.2670 282.8652 13.11418463260267
ONEWEB-0095             
1 45436U 20020N   25209.70107095 -.00000033  00000+0 -12968-3 0  9999
2 45436  87.8809  85.5481 0001044  85.6530 274.4717 13.11420645260288
